satname,norad_id,inclination_deg,eccentricity,mean_motion_rev_per_day,perigee_km,apogee_km,l1,l2
STARLINK-1008,44714,53.156,0.0002788,15.33356831,463.89742478649896,467.7136071333989,1 44714U 19074B   26092.64839637  .00072526  00000+0  22085-2 0  9996,2 44714  53.1560  67.1493 0002788  97.7819 262.3499 15.33356831352540
STARLINK-1012,44718,53.16,0.0003219,15.32526958,466.07212467602585,470.4798453557796,1 44718U 19074F   26092.64127432  .00070956  00000+0  22184-2 0  9998,2 44718  53.1600  67.3815 0003219  95.5522 264.5847 15.32526958352534
STARLINK-1017,44723,53.0487,0.0003115,15.26260147,484.8655670577991,489.14254993724353,1 44723U 19074L   26092.19928884  .00059893  00000+0  22753-2 0  9993,2 44723  53.0487  62.8189 0003115 104.6930 255.4413 15.26260147352554
STARLINK-1019,44724,53.0406,0.0002015,15.89805711,301.4809072708049,304.17333581178536,1 44724U 19074M   26092.91668981  .00359452  00000+0  11383-2 0  9994,2 44724  53.0406  14.2099 0002015 209.8242 309.6939 15.89805711  5842
STARLINK-1020,44725,53.1585,0.0002593,15.3176266,468.77735002079044,472.32908076649346,1 44725U 19074N   26092.69721794  .00074422  00000+0  23814-2 0  9995,2 44725  53.1585  92.2579 0002593  87.8962 272.2336 15.31762660352185
STARLINK-1031,44736,53.033,0.0003366,16.10324599,243.72331189908073,248.18264927401106,1 44736U 19074Z   26092.89844780  .01017615  62399-3  10382-2 0  9991,2 44736  53.0330 355.2076 0003366 201.0234 159.0661 16.10324599353568
STARLINK-1036,44741,53.0467,0.0005219,15.60998496,381.2420413985992,388.3011653988269,1 44741U 19074AE  26092.91668981  .00210948  00000+0  24075-2 0  9991,2 44741  53.0467  70.8296 0005219  53.3325 290.2235 15.60998496  5877
STARLINK-1039,44744,53.0597,0.0001212,15.23698856,493.8623116798717,495.52828622913785,1 44744U 19074AH  26092.30985478  .00068298  00000+0  27963-2 0  9998,2 44744  53.0597 106.3672 0001212 355.5807   4.5179 15.23698856351950
STARLINK-1042,44747,53.0448,0.0001414,15.51146759,412.41638598102236,414.3370260570837,1 44747U 19074AL  26092.69704304  .00031592  00000+0  53773-3 0  9996,2 44747  53.0448 339.4989 0001414 160.7550 199.3511 15.51146759353791
STARLINK-1043,44748,53.0509,0.0002639,15.55250802,399.63455082158634,403.21280294684493,1 44748U 19074AM  26092.25383141  .00044285  00000+0  64624-3 0  9991,2 44748  53.0509  80.6704 0002639  96.3286 263.8025 15.55250802352313
STARLINK-1046,44751,53.0519,0.0002212,15.4611763,426.5905771752914,429.6016547057834,1 44751U 19074AQ  26092.28842534  .00109584  00000+0  21792-2 0  9996,2 44751  53.0519  98.4958 0002212 297.4418  62.6363 15.46117630352067
STARLINK-1047,44752,53.0714,0.0001825,15.33129652,465.2324461875378,467.73073197255144,1 44752U 19074AR  26092.55570214  .00014211  00000+0  44843-3 0  9995,2 44752  53.0714  34.4697 0001825 339.2894  20.8033 15.33129652353005
STARLINK-1048,44753,53.0502,0.0003267,15.5816216,390.76404669566455,395.18829204053054,1 44753U 19074AS  26092.91668981 -.00034435  00000+0 -44376-3 0  9998,2 44753  53.0502  51.5985 0003267 105.0212 156.2018 15.58162160  5915
STARLINK-1063,44768,53.1579,0.0003283,15.32332856,466.6062665381214,471.1020009165268,1 44768U 19074BH  26092.83959824  .00084029  00000+0  26364-2 0  9992,2 44768  53.1579 107.0714 0003283  72.1030 288.0329 15.32332856352011
STARLINK-1067,44771,53.0479,0.0006623,15.62116102,377.06862767255825,386.02250319873383,1 44771U 19074BL  26092.91668981  .00234700  00000+0  25566-2 0  9992,2 44771  53.0479  86.2463 0006623  63.1397 287.2443 15.62116102  5884
STARLINK-1068,44772,53.0463,0.0004554,15.6714155,364.01493286129516,370.15848261430347,1 44772U 19074BM  26092.81730725  .00105341  00000+0  95853-3 0  9993,2 44772  53.0463  61.3755 0004554  36.5011 323.6314 15.67141550352623
STARLINK-1114,44927,53.0465,0.0004598,15.54689173,399.9383229434052,406.17430831645925,1 44927U 20001P   26092.91668981  .00110712  00000+0  16244-2 0  9996,2 44927  53.0465 212.6926 0004598 232.6780 299.3833 15.54689173  5903
STARLINK-1123,44930,53.1421,0.0002554,15.3027705,473.23473429629485,476.73530902495895,1 44930U 20001S   26092.68870223  .00052294  00000+0  17611-2 0  9997,2 44930  53.1421 233.7750 0002554 358.1124   1.9867 15.30277050343545
STARLINK-1094,44941,53.1637,8.69e-05,15.31844321,469.7146855833071,470.90494563985976,1 44941U 20001AD  26092.58231032  .00062842  00000+0  20108-2 0  9992,2 44941  53.1637 208.5103 0000869  43.7182 316.3888 15.31844321343892
STARLINK-1122,44949,53.1597,0.0001473,15.30195327,474.2195213754503,476.2385230055879,1 44949U 20001AM  26092.61502311 -.00003012  00000+0 -89623-4 0  9990,2 44949  53.1597 208.4779 0001473  99.7734 260.3433 15.30195327343897
STARLINK-1080,44961,53.0492,0.0001781,15.51487762,411.17213595553585,413.5909186549625,1 44961U 20001AZ  26092.91668981  .00073288  00000+0  12158-2 0  9990,2 44961  53.0492 172.0696 0001781 244.0179   8.1382 15.51487762  5894
STARLINK-1090,44968,53.1548,0.0002018,15.30544755,472.8030876005869,475.56868511752054,1 44968U 20001BG  26092.00076163  .00054856  00000+0  18310-2 0  9998,2 44968  53.1548 198.2308 0002018  20.4488 339.6593 15.30544755343981
STARLINK-1132,45044,53.1548,0.0004589,15.46418236,424.09107590253825,430.33702709760473,1 45044U 20006A   26092.53144808  .00094736  00000+0  18690-2 0  9991,2 45044  53.1548 140.7351 0004589 336.2814  23.7982 15.46418236340614
STARLINK-1131,45047,53.1573,0.0001299,15.30755742,472.6661910728326,474.4462609729535,1 45047U 20006D   26092.63554845  .00019084  00000+0  64368-3 0  9998,2 45047  53.1573 169.7423 0001299  66.4823 293.6314 15.30755742340215
STARLINK-1134,45048,53.0307,0.0005015,15.46537992,423.45002519123864,430.2754399229925,1 45048U 20006E   26092.81523701  .00093426  00000+0  18357-2 0  9994,2 45048  53.0307 123.3168 0005015 282.8501  77.1944 15.46537992340877
STARLINK-1156,45054,53.1597,0.0001309,15.30186538,474.3581557720008,476.15237386693116,1 45054U 20006L   26092.40158218  .00001664  00000+0  68308-4 0  9999,2 45054  53.1597 170.8532 0001309  89.1553 270.9598 15.30186538340175
STARLINK-1159,45057,53.0387,0.0003599,15.90961256,297.18840887404895,301.9950380091832,1 45057U 20006P   26092.91668981  .00354799  58258-4  11113-2 0  9994,2 45057  53.0387 112.1034 0003599  48.8730  96.3918 15.90961256  6003
STARLINK-1166,45060,53.0493,0.0002429,15.49182979,417.46382771465414,420.765932678054,1 45060U 20006S   26092.67100701  .00085211  00000+0  15300-2 0  9991,2 45060  53.0493 158.0991 0002429 329.7975  30.2892 15.49182979340379
STARLINK-1169,45061,53.1573,0.0002693,15.31758712,468.7206279549846,472.40933884324295,1 45061U 20006T   26092.62266480  .00028271  00000+0  91761-3 0  9993,2 45061  53.1573 169.7430 0002693  38.0394 322.0797 15.31758712340219
STARLINK-1171,45062,53.0434,0.0004406,15.66461905,366.064807000218,372.0104172684296,1 45062U 20006U   26092.40279953  .00076154  00000+0  71622-3 0  9996,2 45062  53.0434 133.0730 0004406  42.5604 317.5752 15.66461905340707
STARLINK-1133,45064,53.1599,0.0001769,15.30204778,473.98844775229645,476.4131586670728,1 45064U 20006W   26092.83190809  .00000455  00000+0  27506-4 0  9991,2 45064  53.1599 145.6639 0001769 101.9745 258.1455 15.30204778340573
STARLINK-1167,45071,53.1584,0.0003434,15.31362021,469.3954279342661,474.09992873134524,1 45071U 20006AD  26092.86033105  .00084939  00000+0  27464-2 0  9997,2 45071  53.1584 145.5856 0003434  45.1483 314.9797 15.31362021340571
STARLINK-1168,45072,53.1608,0.0001222,15.30191632,474.40257219673913,476.0775375489502,1 45072U 20006AE  26092.42108951  .00000756  00000+0  37652-4 0  9999,2 45072  53.1608 147.7781 0001222  79.0237 281.0902 15.30191632340508
STARLINK-1172,45074,53.157,0.0003243,15.32342744,466.60420888622593,471.04514823093905,1 45074U 20006AG  26092.85943991  .00063300  00000+0  19937-2 0  9997,2 45074  53.1570 145.3939 0003243  46.4519 313.6751 15.32342744340578
STARLINK-1153,45080,53.1575,0.0003172,15.31387874,469.49782565353235,473.8433435852148,1 45080U 20006AN  26092.84440359  .00114498  00000+0  36805-2 0  9991,2 45080  53.1575 145.5795 0003172  39.6690 320.4543 15.31387874340574
STARLINK-1151,45081,53.0508,0.0004433,15.68509037,360.1772199926836,366.1540589128226,1 45081U 20006AP  26092.36338797  .00084966  00000+0  73406-3 0  9996,2 45081  53.0508 123.2880 0004433  50.6011 309.5397 15.68509037340830
STARLINK-1185,45087,53.1611,0.0001507,15.38939106,448.2163452101404,450.27411821477835,1 45087U 20006AV  26092.80713823  .00021339  00000+0  55412-3 0  9990,2 45087  53.1611 129.5971 0001507  76.6148 283.5024 15.38939106340794
STARLINK-1183,45088,53.1578,0.0001124,15.3019954,474.44612596977095,475.98675982373334,1 45088U 20006AW  26092.52738765  .00002372  00000+0  92196-4 0  9999,2 45088  53.1578 131.8554 0001124  79.5883 280.5244 15.30199540340730
STARLINK-1152,45096,53.0371,0.0003274,15.41430999,439.65222889461893,444.1179793684032,1 45096U 20006BE  26092.28577396  .00053887  00000+0  12692-2 0  9990,2 45096  53.0371  94.9252 0003274 348.1524  11.9403 15.41430999341224
STARLINK-1184,45098,53.0519,0.0002348,15.11478996,530.0663454659025,533.311199648696,1 45098U 20006BG  26092.81125397  .00030680  00000+0  18017-2 0  9994,2 45098  53.0519 136.3813 0002348 204.2457 155.8424 15.11478996340688
STARLINK-1193,45100,53.0499,0.0006173,15.59454488,385.05731621119867,393.4123134537922,1 45100U 20006BJ  26092.77053678  .00051426  00000+0  63965-3 0  9999,2 45100  53.0499 113.4929 0006173  48.9206 311.2338 15.59454488341009
STARLINK-1143,45179,53.0461,0.0004114,15.69515891,357.51008763439313,363.05445901248277,1 45179U 20012B   26092.91668981  .00196500  00000+0  16009-2 0  9996,2 45179  53.0461 210.8505 0004114 239.7768 307.2540 15.69515891  5949
STARLINK-1202,45183,53.1569,0.0001483,15.30185648,474.241563772327,476.2742807062632,1 45183U 20012F   26092.52840773  .00001358  00000+0  58008-4 0  9992,2 45183  53.1569 288.5226 0001483  85.6725 274.4446 15.30185648338606
